{"type": "FeatureCollection", "features": [ {"type": "Feature", "properties": {"norad_id": 33825, "name": "COSMOS 2251 DEB", "group": "cosmos-2251-debris", "lat": -50.26020561259313, "lon": -161.24249362776018, "alt_km": 666.4139401738321, "timestamp": "2025-12-27T18:38:03.870508+00:00", "meta": {"OBJECT_NAME": "COSMOS 2251 DEB", "OBJECT_ID": "1993-036BS", "EPOCH": "2025-12-27T09:58:23.409408", "MEAN_MOTION": 14.69923669, "ECCENTRICITY": 0.0085162, "INCLINATION": 73.9853, "RA_OF_ASC_NODE": 359.249, "ARG_OF_PERICENTER": 322.9629, "MEAN_ANOMALY": 162.1524, "EPHEMERIS_TYPE": 0, "CLASSIFICATION_TYPE": "U", "NORAD_CAT_ID": 33825, "ELEMENT_SET_NO": 999, "REV_AT_EPOCH": 89095, "BSTAR": 0.0013228, "MEAN_MOTION_DOT": 8.35e-05, "MEAN_MOTION_DDOT": 0}, "tle": {"line1": "1 33825U 93036BS  25361.41554872  .00008350  00000+0  13228-2 0  9998", "line2": "2 33825  73.9853 359.2490 0085162 322.9629 162.1524 14.69923669890952"}}, "geometry": {"type": "Point", "coordinates": [-161.24249362776018, -50.26020561259313]}}, {"type": "Feature", "properties": {"norad_id": 33826, "name": "COSMOS 2251 DEB", "group": "cosmos-2251-debris", "lat": -44.01499247670591, "lon": -142.37017686534716, "alt_km": 782.7773657255248, "timestamp": "2025-12-27T18:38:03.870519+00:00", "meta": {"OBJECT_NAME": "COSMOS 2251 DEB", "OBJECT_ID": "1993-036BT", "EPOCH": "2025-12-27T11:32:34.963008", "MEAN_MOTION": 14.51783695, "ECCENTRICITY": 0.0082473, "INCLINATION": 74.065, "RA_OF_ASC_NODE": 22.1607, "ARG_OF_PERICENTER": 61.4616, "MEAN_ANOMALY": 60.848, "EPHEMERIS_TYPE": 0, "CLASSIFICATION_TYPE": "U", "NORAD_CAT_ID": 33826, "ELEMENT_SET_NO": 999, "REV_AT_EPOCH": 87983, "BSTAR": 0.00050374, "MEAN_MOTION_DOT": 2.089e-05, "MEAN_MOTION_DDOT": 0}, "tle": {"line1": "1 33826U 93036BT  25361.48096022  .00002089  00000+0  50374-3 0  9991", "line2": "2 33826  74.0650  22.1607 0082473  61.4616  60.8480 14.51783695879832"}}, "geometry": {"type": "Point", "coordinates": [-142.37017686534716, -44.01499247670591]}}, {"type": "Feature", "properties": {"norad_id": 33828, "name": "COSMOS 2251 DEB", "group": "cosmos-2251-debris", "lat": 72.39345706214505, "lon": -85.51473414062677, "alt_km": 756.7331277717676, "timestamp": "2025-12-27T18:38:03.870529+00:00", "meta": {"OBJECT_NAME": "COSMOS 2251 DEB", "OBJECT_ID": "1993-036BV", "EPOCH": "2025-12-27T00:30:00.662400", "MEAN_MOTION": 14.44373709, "ECCENTRICITY": 0.00295175, "INCLINATION": 74.0447, "RA_OF_ASC_NODE": 211.5334, "ARG_OF_PERICENTER": 282.2641, "MEAN_ANOMALY": 192.8226, "EPHEMERIS_TYPE": 0, "CLASSIFICATION_TYPE": "U", "NORAD_CAT_ID": 33828, "ELEMENT_SET_NO": 999, "REV_AT_EPOCH": 88519, "BSTAR": 0.0004485036, "MEAN_MOTION_DOT": 1.526e-05, "MEAN_MOTION_DDOT": 0}, "tle": {"line1": "1 33828U 93036BV  25361.02084100  .00001526  00000+0  44850-3 0  9994", "line2": "2 33828  74.0447 211.5334 0029517 282.2641 192.8226 14.44373709885193"}}, "geometry": {"type": "Point", "coordinates": [-85.51473414062677, 72.39345706214505]}}, {"type": "Feature", "properties": {"norad_id": 33830, "name": "COSMOS 2251 DEB", "group": "cosmos-2251-debris", "lat": -70.5034082048561, "lon": 146.90482149426936, "alt_km": 621.3661815520427, "timestamp": "2025-12-27T18:38:03.870541+00:00", "meta": {"OBJECT_NAME": "COSMOS 2251 DEB", "OBJECT_ID": "1993-036BX", "EPOCH": "2025-12-27T12:36:09.134208", "MEAN_MOTION": 14.77052964, "ECCENTRICITY": 0.0042842, "INCLINATION": 74.0311, "RA_OF_ASC_NODE": 201.3745, "ARG_OF_PERICENTER": 318.4556, "MEAN_ANOMALY": 67.3286, "EPHEMERIS_TYPE": 0, "CLASSIFICATION_TYPE": "U", "NORAD_CAT_ID": 33830, "ELEMENT_SET_NO": 999, "REV_AT_EPOCH": 89690, "BSTAR": 0.00079889, "MEAN_MOTION_DOT": 5.694e-05, "MEAN_MOTION_DDOT": 0}, "tle": {"line1": "1 33830U 93036BX  25361.52510572  .00005694  00000+0  79889-3 0  9999", "line2": "2 33830  74.0311 201.3745 0042842 318.4556  67.3286 14.77052964896908"}}, "geometry": {"type": "Point", "coordinates": [146.90482149426936, -70.5034082048561]}}, {"type": "Feature", "properties": {"norad_id": 33832, "name": "COSMOS 2251 DEB", "group": "cosmos-2251-debris", "lat": 6.474113676114522, "lon": -0.578481302691536, "alt_km": 678.6063677120865, "timestamp": "2025-12-27T18:38:03.870552+00:00", "meta": {"OBJECT_NAME": "COSMOS 2251 DEB", "OBJECT_ID": "1993-036BZ", "EPOCH": "2025-12-27T05:13:54.178752", "MEAN_MOTION": 14.608241, "ECCENTRICITY": 0.0023924, "INCLINATION": 74.0535, "RA_OF_ASC_NODE": 182.3463, "ARG_OF_PERICENTER": 210.6924, "MEAN_ANOMALY": 266.9752, "EPHEMERIS_TYPE": 0, "CLASSIFICATION_TYPE": "U", "NORAD_CAT_ID": 33832, "ELEMENT_SET_NO": 999, "REV_AT_EPOCH": 88636, "BSTAR": 0.001623, "MEAN_MOTION_DOT": 7.942e-05, "MEAN_MOTION_DDOT": 0}, "tle": {"line1": "1 33832U 93036BZ  25361.21798818  .00007942  00000+0  16230-2 0  9996", "line2": "2 33832  74.0535 182.3463 0023924 210.6924 266.9752 14.60824100886360"}}, "geometry": {"type": "Point", "coordinates": [-0.578481302691536, 6.474113676114522]}}, {"type": "Feature", "properties": {"norad_id": 33835, "name": "COSMOS 2251 DEB", "group": "cosmos-2251-debris", "lat": 73.52190712125514, "lon": 177.2484792836752, "alt_km": 644.3737698691139, "timestamp": "2025-12-27T18:38:03.870562+00:00", "meta": {"OBJECT_NAME": "COSMOS 2251 DEB", "OBJECT_ID": "1993-036CC", "EPOCH": "2025-12-27T11:43:49.181952", "MEAN_MOTION": 14.62389775, "ECCENTRICITY": 0.0053562, "INCLINATION": 74.0575, "RA_OF_ASC_NODE": 72.8964, "ARG_OF_PERICENTER": 122.012, "MEAN_ANOMALY": 258.5984, "EPHEMERIS_TYPE": 0, "CLASSIFICATION_TYPE": "U", "NORAD_CAT_ID": 33835, "ELEMENT_SET_NO": 999, "REV_AT_EPOCH": 89005, "BSTAR": 0.00094202, "MEAN_MOTION_DOT": 4.836e-05, "MEAN_MOTION_DDOT": 0}, "tle": {"line1": "1 33835U 93036CC  25361.48876368  .00004836  00000+0  94202-3 0  9990", "line2": "2 33835  74.0575  72.8964 0053562 122.0120 258.5984 14.62389775890052"}}, "geometry": {"type": "Point", "coordinates": [177.2484792836752, 73.52190712125514]}}, {"type": "Feature", "properties": {"norad_id": 33836, "name": "COSMOS 2251 DEB", "group": "cosmos-2251-debris", "lat": -18.976238924424806, "lon": -136.38904451585802, "alt_km": 636.2783642878512, "timestamp": "2025-12-27T18:38:03.870573+00:00", "meta": {"OBJECT_NAME": "COSMOS 2251 DEB", "OBJECT_ID": "1993-036CD", "EPOCH": "2025-12-27T09:48:18.949824", "MEAN_MOTION": 14.79863951, "ECCENTRICITY": 0.0022967, "INCLINATION": 73.9963, "RA_OF_ASC_NODE": 230.0007, "ARG_OF_PERICENTER": 77.6446, "MEAN_ANOMALY": 103.8817, "EPHEMERIS_TYPE": 0, "CLASSIFICATION_TYPE": "U", "NORAD_CAT_ID": 33836, "ELEMENT_SET_NO": 999, "REV_AT_EPOCH": 64305, "BSTAR": 0.0011544, "MEAN_MOTION_DOT": 8.721e-05, "MEAN_MOTION_DDOT": 0}, "tle": {"line1": "1 33836U 93036CD  25361.40855266  .00008721  00000+0  11544-2 0  9991", "line2": "2 33836  73.9963 230.0007 0022967  77.6446 103.8817 14.79863951643053"}}, "geometry": {"type": "Point", "coordinates": [-136.38904451585802, -18.976238924424806]}}, {"type": "Feature", "properties": {"norad_id": 33837, "name": "COSMOS 2251 DEB", "group": "cosmos-2251-debris", "lat": -9.061563025257245, "lon": -150.09171151959026, "alt_km": 713.1661100449855, "timestamp": "2025-12-27T18:38:03.870583+00:00", "meta": {"OBJECT_NAME": "COSMOS 2251 DEB", "OBJECT_ID": "1993-036CE", "EPOCH": "2025-12-27T11:08:28.502592", "MEAN_MOTION": 14.50732352, "ECCENTRICITY": 0.0035851, "INCLINATION": 74.0121, "RA_OF_ASC_NODE": 27.8751, "ARG_OF_PERICENTER": 247.2836, "MEAN_ANOMALY": 112.4533, "EPHEMERIS_TYPE": 0, "CLASSIFICATION_TYPE": "U", "NORAD_CAT_ID": 33837, "ELEMENT_SET_NO": 999, "REV_AT_EPOCH": 89009, "BSTAR": 0.00028747, "MEAN_MOTION_DOT": 1.111e-05, "MEAN_MOTION_DDOT": 0}, "tle": {"line1": "1 33837U 93036CE  25361.46421878  .00001111  00000+0  28747-3 0  9996", "line2": "2 33837  74.0121  27.8751 0035851 247.2836 112.4533 14.50732352890092"}}, "geometry": {"type": "Point", "coordinates": [-150.09171151959026, -9.061563025257245]}}, {"type": "Feature", "properties": {"norad_id": 33838, "name": "COSMOS 2251 DEB", "group": "cosmos-2251-debris", "lat": -59.58576904395352, "lon": 92.47102511288723, "alt_km": 726.3382367596132, "timestamp": "2025-12-27T18:38:03.870593+00:00", "meta": {"OBJECT_NAME": "COSMOS 2251 DEB", "OBJECT_ID": "1993-036CF", "EPOCH": "2025-12-27T12:39:57.453120", "MEAN_MOTION": 14.48410415, "ECCENTRICITY": 0.0027448, "INCLINATION": 74.037, "RA_OF_ASC_NODE": 122.1193, "ARG_OF_PERICENTER": 242.0088, "MEAN_ANOMALY": 197.8338, "EPHEMERIS_TYPE": 0, "CLASSIFICATION_TYPE": "U", "NORAD_CAT_ID": 33838, "ELEMENT_SET_NO": 999, "REV_AT_EPOCH": 88783, "BSTAR": 0.00050809, "MEAN_MOTION_DOT": 1.885e-05, "MEAN_MOTION_DDOT": 0}, "tle": {"line1": "1 33838U 93036CF  25361.52774830  .00001885  00000+0  50809-3 0  9995", "line2": "2 33838  74.0370 122.1193 0027448 242.0088 197.8338 14.48410415887831"}}, "geometry": {"type": "Point", "coordinates": [92.47102511288723, -59.58576904395352]}}, {"type": "Feature", "properties": {"norad_id": 33839, "name": "COSMOS 2251 DEB", "group": "cosmos-2251-debris", "lat": 11.056043794801683, "lon": -179.20794965168832, "alt_km": 674.5368866272975, "timestamp": "2025-12-27T18:38:03.870604+00:00", "meta": {"OBJECT_NAME": "COSMOS 2251 DEB", "OBJECT_ID": "1993-036CG", "EPOCH": "2025-12-27T12:20:00.582432", "MEAN_MOTION": 14.64457852, "ECCENTRICITY": 0.0085381, "INCLINATION": 74.0374, "RA_OF_ASC_NODE": 178.0903, "ARG_OF_PERICENTER": 286.8177, "MEAN_ANOMALY": 140.2836, "EPHEMERIS_TYPE": 0, "CLASSIFICATION_TYPE": "U", "NORAD_CAT_ID": 33839, "ELEMENT_SET_NO": 999, "REV_AT_EPOCH": 89796, "BSTAR": 0.00027614, "MEAN_MOTION_DOT": 1.508e-05, "MEAN_MOTION_DDOT": 0}, "tle": {"line1": "1 33839U 93036CG  25361.51389563  .00001508  00000+0  27614-3 0  9990", "line2": "2 33839  74.0374 178.0903 0085381 286.8177 140.2836 14.64457852897964"}}, "geometry": {"type": "Point", "coordinates": [-179.20794965168832, 11.056043794801683]}}]}